OBJECT_NAME,OBJECT_ID,EPOCH,MEAN_MOTION,ECCENTRICITY,INCLINATION,RA_OF_ASC_NODE,ARG_OF_PERICENTER,MEAN_ANOMALY,EPHEMERIS_TYPE,CLASSIFICATION_TYPE,NORAD_CAT_ID,ELEMENT_SET_NO,REV_AT_EPOCH,BSTAR,MEAN_MOTION_DOT,MEAN_MOTION_DDOT
QZS-3 (MICHIBIKI-3),2017-048A,2026-07-18T13:33:38.500416,1.00270794,.00026712,0.0611,210.7879,275.9120,140.1138,0,U,42917,999,3257,0,-.355E-5,0
AMAZONAS 5,2017-053A,2026-07-18T12:56:06.025632,1.00274794,.00011102,0.0365,315.7534,140.4788,333.1332,0,U,42934,999,3235,0,-.29E-5,0
INTELSAT 37E (IS-37E),2017-059A,2026-07-18T09:42:47.628288,1.00272890,.00026472,0.0152,79.3919,40.6491,303.8542,0,U,42950,999,3237,0,-.148E-5,0
BSAT-4A,2017-059B,2026-07-18T15:24:25.192800,1.00270141,.00034876,0.0379,338.0563,106.1363,193.1769,0,U,42951,999,3211,0,-.357E-5,0
QZS-4 (MICHIBIKI-4),2017-062A,2026-07-17T17:23:47.362272,1.00289834,.07471687,40.0900,343.0956,268.6307,83.9887,0,U,42965,999,3211,0,-.356E-5,0
SES-11 (ECHOSTAR 105),2017-063A,2026-07-18T12:43:37.222752,1.00271469,.0002787,0.0276,316.8816,148.8150,276.5781,0,U,42967,999,3203,0,-.96E-6,0
KOREASAT 5A,2017-067A,2026-07-18T14:28:50.405088,1.00273780,.00009385,0.0197,314.8156,132.7218,179.2045,0,U,42984,999,3184,0,-.365E-5,0
ALCOMSAT 1,2017-078A,2026-07-18T11:23:49.814304,1.00272585,.00023057,0.0445,258.4653,220.0391,323.9051,0,U,43039,999,3160,0,-.194E-5,0
SBIRS GEO-3 (USA 282),2018-009A,2026-07-18T14:31:38.665632,1.00270987,.00019138,2.2076,13.5670,98.7990,242.5420,0,U,43162,999,3115,0,.121E-5,0
AL YAH 3,2018-012A,2026-07-18T05:26:38.777280,1.00270673,.00036536,1.6302,82.7331,31.9893,242.8486,0,U,43174,999,3115,0,-.165E-5,0
SES-14,2018-012B,2026-07-18T12:59:58.155648,1.00271638,.00009263,0.0120,30.3862,78.5966,334.8397,0,U,43175,999,734,0,-.286E-5,0
GOES 17,2018-022A,2026-07-18T12:47:59.304192,1.00270821,.0000625,1.0158,85.2110,68.3954,245.2221,0,U,43226,999,3073,0,-.19E-5,0
HISPASAT 30W-6,2018-023A,2026-07-18T09:39:40.427136,1.00269757,.00051526,0.0402,49.2442,42.3069,319.5876,0,U,43228,999,3071,0,-.224E-5,0
SUPERBIRD-B3,2018-033A,2026-07-18T06:14:38.808960,1.00271123,.00011604,0.0162,51.8489,77.6615,62.2138,0,U,43271,999,3037,0,-.1E-5,0
HYLAS 4,2018-033B,2026-07-18T11:21:20.053728,1.00261874,.00007006,0.0413,235.4716,210.1307,347.5013,0,U,43272,999,3037,0,-.242E-5,0
IRNSS-1I,2018-035A,2026-07-16T17:59:38.660928,1.00272376,.00184089,28.8220,73.7347,178.6594,7.1470,0,U,43286,999,3037,0,.6E-6,0
USA 283,2018-036A,2026-07-15T13:17:38.420160,1.00269348,.0000851,0.0219,73.5495,143.9027,49.4517,0,U,43339,999,2557,0,0,0
APSTAR-6C,2018-041A,2026-07-17T15:37:14.924352,1.00269827,.0000428,0.0526,292.8057,310.9892,59.9640,0,U,43450,999,3011,0,-.327E-5,0
BANGABANDHUSAT-1,2018-044A,2026-07-18T13:06:38.697408,1.00273025,.00018588,0.0313,96.8659,22.2496,132.9881,0,U,43463,999,3002,0,-.37E-5,0
SES-12,2018-049A,2026-07-18T15:42:20.151360,1.00272393,.00007429,0.0102,19.3321,239.4252,8.2759,0,U,43488,999,2973,0,-.276E-5,0
FENGYUN 2H,2018-050A,2026-07-18T13:36:02.663136,1.00266946,.00022185,3.1104,78.7063,133.3844,7.3647,0,U,43491,999,2975,0,-.134E-5,0
BEIDOU-2 IGSO-7,2018-057A,2026-07-16T19:52:42.225600,1.00242392,.01049148,55.1987,162.7987,237.9691,299.1450,0,U,43539,999,2942,0,-.84E-6,0
TELSTAR 19V,2018-059A,2026-07-18T12:55:36.074208,1.00270344,.00029923,0.0275,152.5799,337.0998,297.5501,0,U,43562,999,2945,0,-.287E-5,0
TELKOM 4 (MERAH PUTIH),2018-064A,2026-07-18T15:27:59.342112,1.00269919,.00012709,0.0180,67.1264,48.8947,160.4265,0,U,43587,999,2919,0,0,0
TELSTAR 18V,2018-069A,2026-07-18T10:27:33.508800,1.00271743,.00017678,0.0319,269.6832,203.6622,117.7837,0,U,43611,999,2895,0,-.301E-5,0
AZERSPACE 2 (IS-38),2018-074A,2026-07-18T13:26:25.619136,1.00269815,.00014686,0.0170,47.2856,60.5324,75.2748,0,U,43632,999,2876,0,0,0
HORIZONS-3E,2018-074B,2026-07-18T13:42:38.687040,1.00271113,.00007167,0.0358,256.1104,30.1678,24.7386,0,U,43633,999,2865,0,-.38E-6,0
AEHF-4 (USA 288),2018-079A,2026-07-18T12:54:21.193920,1.00274192,.00599073,1.4343,5.0747,355.2827,62.0406,0,U,43651,999,2861,0,-.282E-5,0
BEIDOU-3 G1,2018-085A,2026-07-18T12:24:50.762880,1.00272477,.00080426,2.9460,96.5234,356.9291,189.0521,0,U,43683,999,2837,0,-.117E-5,0
