QZS-3 (MICHIBIKI-3)     
1 42917U 17048A   26199.56502894 -.00000355  00000+0  00000+0 0  9991
2 42917   0.0611 210.7879 0002671 275.9120 140.1138  1.00270794 32574
AMAZONAS 5              
1 42934U 17053A   26199.53895863 -.00000290  00000+0  00000+0 0  9992
2 42934   0.0365 315.7534 0001110 140.4788 333.1332  1.00274794 32356
INTELSAT 37E (IS-37E)   
1 42950U 17059A   26199.40471792 -.00000148  00000+0  00000+0 0  9995
2 42950   0.0152  79.3919 0002647  40.6491 303.8542  1.00272890 32370
BSAT-4A                 
1 42951U 17059B   26199.64195825 -.00000357  00000+0  00000+0 0  9994
2 42951   0.0379 338.0563 0003487 106.1363 193.1769  1.00270141 32111
QZS-4 (MICHIBIKI-4)     
1 42965U 17062A   26198.72485373 -.00000356  00000+0  00000+0 0  9990
2 42965  40.0900 343.0956 0747168 268.6307  83.9887  1.00289834 32111
SES-11 (ECHOSTAR 105)   
1 42967U 17063A   26199.53029193 -.00000096  00000+0  00000+0 0  9998
2 42967   0.0276 316.8816 0002787 148.8150 276.5781  1.00271469 32033
KOREASAT 5A             
1 42984U 17067A   26199.60336117 -.00000365  00000+0  00000+0 0  9995
2 42984   0.0197 314.8156 0000938 132.7218 179.2045  1.00273780 31840
ALCOMSAT 1              
1 43039U 17078A   26199.47488211 -.00000194  00000+0  00000+0 0  9997
2 43039   0.0445 258.4653 0002305 220.0391 323.9051  1.00272585 31607
SBIRS GEO-3 (USA 282)   
1 43162U 18009A   26199.60530863  .00000121  00000+0  00000+0 0  9994
2 43162   2.2076  13.5670 0001913  98.7990 242.5420  1.00270987 31156
AL YAH 3                
1 43174U 18012A   26199.22683770 -.00000165  00000+0  00000+0 0  9994
2 43174   1.6302  82.7331 0003653  31.9893 242.8486  1.00270673 31157
SES-14                  
1 43175U 18012B   26199.54164532 -.00000286  00000+0  00000+0 0  9994
2 43175   0.0120  30.3862 0000926  78.5966 334.8397  1.00271638  7344
GOES 17                 
1 43226U 18022A   26199.53332528 -.00000190  00000+0  00000+0 0  9997
2 43226   1.0158  85.2110 0000625  68.3954 245.2221  1.00270821 30731
HISPASAT 30W-6          
1 43228U 18023A   26199.40255124 -.00000224  00000+0  00000+0 0  9990
2 43228   0.0402  49.2442 0005152  42.3069 319.5876  1.00269757 30716
SUPERBIRD-B3            
1 43271U 18033A   26199.26017140 -.00000100  00000+0  00000+0 0  9990
2 43271   0.0162  51.8489 0001160  77.6615  62.2138  1.00271123 30375
HYLAS 4                 
1 43272U 18033B   26199.47314877 -.00000242  00000+0  00000+0 0  9998
2 43272   0.0413 235.4716 0000700 210.1307 347.5013  1.00261874 30372
IRNSS-1I                
1 43286U 18035A   26197.74975302  .00000060  00000+0  00000+0 0  9996
2 43286  28.8220  73.7347 0018408 178.6594   7.1470  1.00272376 30379
USA 283                 
1 43339U 18036A   26196.55391690  .00000000  00000+0  00000+0 0  9990
2 43339   0.0219  73.5495 0000851 143.9027  49.4517  1.00269348 25571
APSTAR-6C               
1 43450U 18041A   26198.65086718 -.00000327  00000+0  00000+0 0  9998
2 43450   0.0526 292.8057 0000428 310.9892  59.9640  1.00269827 30113
BANGABANDHUSAT-1        
1 43463U 18044A   26199.54628122 -.00000370  00000+0  00000+0 0  9993
2 43463   0.0313  96.8659 0001858  22.2496 132.9881  1.00273025 30026
SES-12                  
1 43488U 18049A   26199.65439990 -.00000276  00000+0  00000+0 0  9995
2 43488   0.0102  19.3321 0000742 239.4252   8.2759  1.00272393 29730
FENGYUN 2H              
1 43491U 18050A   26199.56669749 -.00000134  00000+0  00000+0 0  9991
2 43491   3.1104  78.7063 0002218 133.3844   7.3647  1.00266946 29756
BEIDOU-2 IGSO-7         
1 43539U 18057A   26197.82826650 -.00000084  00000+0  00000+0 0  9998
2 43539  55.1987 162.7987 0104914 237.9691 299.1450  1.00242392 29427
TELSTAR 19V             
1 43562U 18059A   26199.53861197 -.00000287  00000+0  00000+0 0  9996
2 43562   0.0275 152.5799 0002992 337.0998 297.5501  1.00270344 29455
TELKOM 4 (MERAH PUTIH)  
1 43587U 18064A   26199.64443683  .00000000  00000+0  00000+0 0  9999
2 43587   0.0180  67.1264 0001270  48.8947 160.4265  1.00269919 29196
TELSTAR 18V             
1 43611U 18069A   26199.43580450 -.00000301  00000+0  00000+0 0  9998
2 43611   0.0319 269.6832 0001767 203.6622 117.7837  1.00271743 28951
AZERSPACE 2 (IS-38)     
1 43632U 18074A   26199.56001874  .00000000  00000+0  00000+0 0  9994
2 43632   0.0170  47.2856 0001468  60.5324  75.2748  1.00269815 28767
HORIZONS-3E             
1 43633U 18074B   26199.57128110 -.00000038  00000+0  00000+0 0  9991
2 43633   0.0358 256.1104 0000716  30.1678  24.7386  1.00271113 28652
AEHF-4 (USA 288)        
1 43651U 18079A   26199.53774530 -.00000282  00000+0  00000+0 0  9996
2 43651   1.4343   5.0747 0059907 355.2827  62.0406  1.00274192 28612
BEIDOU-3 G1             
1 43683U 18085A   26199.51725420 -.00000117  00000+0  00000+0 0  9997
2 43683   2.9460  96.5234 0008042 356.9291 189.0521  1.00272477 28371
